1 40294U 14068A   19001.18737503  .00000009  00000-0  00000+0 0  9991
2 40294  55.1268 138.0991 0017419  33.8824 326.1942  2.00570848 30553
1 40294U 14068A   19001.18737503  .00000009  00000-0  00000-0 0  9992
2 40294  55.1268 138.0991 0017419  33.8824 326.1942  2.00570848 30575
1 40294U 14068A   19001.68593083  .00000002  00000-0  00000+0 0  9992
2 40294  55.1270 138.0793 0017416  33.8162 326.2580  2.00570965 30568
1 40294U 14068A   19001.68593196  .00000002  00000-0  00000-0 0  9998
2 40294  55.1270 138.0792 0017423  33.8581 326.2163  2.00570890 30586
1 40294U 14068A   19002.18448908 -.00000004  00000-0  00000-0 0  9997
2 40294  55.1271 138.0594 0017413  33.8083 326.2638  2.00570975 30595
1 40294U 14068A   19003.18160544 -.00000015  00000-0  00000+0 0  9996
2 40294  55.1274 138.0198 0017412  33.7565 326.3120  2.00571054 30597
1 40294U 14068A   19003.68016348 -.00000019  00000-0  00000+0 0  9997
2 40294  55.1276 137.9999 0017409  33.7132 326.3538  2.00571118 30608
1 40294U 14068A   19003.68016378 -.00000019  00000-0  00000-0 0  9991
2 40294  55.1276 137.9999 0017418  33.7306 326.3365  2.00571079 30627
1 40294U 14068A   19005.17584232 -.00000021  00000-0  00000+0 0  9998
2 40294  55.1280 137.9405 0017410  33.6238 326.4417  2.00571239 30637
1 40294U 14068A   19006.17296242 -.00000017  00000-0  00000+0 0  9995
2 40294  55.1282 137.9008 0017408  33.5453 326.5215  2.00571370 30658
1 40294U 14068A   19006.67152384 -.00000013  00000-0  00000-0 0  9995
2 40294  55.1284 137.8810 0017412  33.5204 326.5477  2.00571381 30684
1 40294U 14068A   19007.17008687 -.00000008  00000-0  00000+0 0  9990
2 40294  55.1285 137.8611 0017410  33.4688 326.6010  2.00571418 30671
1 40294U 14068A   19008.16721115  .00000002  00000-0  00000+0 0  9991
2 40294  55.1288 137.8215 0017423  33.4260 326.6481  2.00571496 30694
1 40294U 14068A   19008.16721115  .00000002  00000-0  00000-0 0  9992
2 40294  55.1288 137.8215 0017423  33.4260 326.6481  2.00571496 30717
1 40294U 14068A   19008.66577398  .00000007  00000-0  00000+0 0  9993
2 40294  55.1289 137.8016 0017424  33.4072 326.6693  2.00571539 30701
1 40294U 14068A   19008.66577398  .00000007  00000-0  00000-0 0  9994
2 40294  55.1289 137.8016 0017424  33.4072 326.6693  2.00571539 30723
1 40294U 14068A   19010.66002383  .00000025  00000-0  00000+0 0  9993
2 40294  55.1295 137.7223 0017432  33.2343 326.8520  2.00571689 30746
1 40294U 14068A   19011.65714684  .00000030  00000-0  00000-0 0  9994
2 40294  55.1298 137.6827 0017436  33.2154 326.8749  2.00571717 30781
1 40294U 14068A   19012.15570700  .00000031  00000-0  00000+0 0  9999
2 40294  55.1299 137.6628 0017440  33.1682 326.9235  2.00571785 30776
1 40294U 14068A   19013.65138534  .00000030  00000-0  00000+0 0  9999
2 40294  55.1303 137.6033 0017446  33.0527 327.0408  2.00571826 30809
1 40294U 14068A   19014.14994238  .00000028  00000-0  00000-0 0  9993
2 40294  55.1304 137.5835 0017453  32.9497 327.1433  2.00571899 30833
1 40294U 14068A   19014.14994245  .00000028  00000-0  00000+0 0  9990
2 40294  55.1304 137.5835 0017450  32.9682 327.1248  2.00571893 30812
1 40294U 14068A   19014.64850031  .00000025  00000-0  00000+0 0  9996
2 40294  55.1305 137.5636 0017455  32.9297 327.1627  2.00571892 30820
1 40294U 14068A   19015.14705638  .00000022  00000-0  00000-0 0  9992
2 40294  55.1306 137.5437 0017459  32.8530 327.2381  2.00571937 30854
1 40294U 14068A   19016.14416790  .00000015  00000-0  00000+0 0  9992
2 40294  55.1309 137.5041 0017469  32.8194 327.2688  2.00571979 30851
1 40294U 14068A   19016.64272369  .00000012  00000-0  00000-0 0  9997
2 40294  55.1310 137.4842 0017473  32.7846 327.3019  2.00571992 30886
1 40294U 14068A   19017.14127855  .00000008  00000-0  00000+0 0  9996
2 40294  55.1312 137.4644 0017480  32.7499 327.3348  2.00572035 30873
1 40294U 14068A   19017.14127855  .00000008  00000-0  00000-0 0  9997
2 40294  55.1312 137.4644 0017480  32.7499 327.3348  2.00572035 30895
1 40294U 14068A   19018.13838950  .00000002  00000-0  00000+0 0  9995
2 40294  55.1315 137.4246 0017487  32.6666 327.4149  2.00572093 30892
1 40294U 14068A   19019.13550258 -.00000002  00000-0  00000+0 0  9999
2 40294  55.1318 137.3850 0017491  32.5869 327.4930  2.00572152 30911
1 40294U 14068A   19019.13550258 -.00000002  00000-0  00000-0 0  9990
2 40294  55.1318 137.3850 0017491  32.5869 327.4930  2.00572152 30933
1 40294U 14068A   19020.63117598 -.00000003  00000-0  00000-0 0  9994
2 40294  55.1322 137.3254 0017496  32.4769 327.6044  2.00572239 30966
1 40294U 14068A   19021.12973552 -.00000001  00000-0  00000-0 0  9997
2 40294  55.1323 137.3056 0017501  32.4233 327.6595  2.00572281 30957
1 40294U 14068A   19021.62829582  .00000000  00000-0  00000+0 0  9992
2 40294  55.1325 137.2857 0017507  32.3989 327.6859  2.00572283 30966
1 40294U 14068A   19021.62829582  .00000000  00000-0  00000-0 0  9993
2 40294  55.1325 137.2857 0017507  32.3989 327.6859  2.00572283 30988
1 40294U 14068A   19023.12397483  .00000007  00000-0  00000+0 0  9996
2 40294  55.1329 137.2261 0017508  32.2354 327.8565  2.00572459 30999
1 40294U 14068A   19024.12109425  .00000009  00000-0  00000+0 0  9996
2 40294  55.1331 137.1864 0017513  32.1169 327.9794  2.00572545 31014
1 40294U 14068A   19024.12109425  .00000009  00000-0  00000-0 0  9997
2 40294  55.1331 137.1864 0017513  32.1169 327.9794  2.00572545 31036
1 40294U 14068A   19024.12109444  .00000009  00000-0  00000+0 0  9997
2 40294  55.1331 137.1864 0017513  32.1450 327.9513  2.00572534 31014
1 40294U 14068A   19025.61676877  .00000004  00000-0  00000-0 0  9997
2 40294  55.1335 137.1268 0017528  32.0472 328.0532  2.00572644 31065
1 40294U 14068A   19026.11532571  .00000000  00000-0  00000+0 0  9990
2 40294  55.1336 137.1070 0017529  32.0098 328.0909  2.00572699 31059
1 40294U 14068A   19026.11532571  .00000000  00000-0  00000-0 0  9991
2 40294  55.1336 137.1070 0017529  32.0098 328.0909  2.00572699 31071
1 40294U 14068A   19027.11243598 -.00000010  00000-0  00000+0 0  9991
2 40294  55.1338 137.0672 0017530  31.9012 328.1985  2.00572807 31072
1 40294U 14068A   19027.11243598 -.00000010  00000-0  00000-0 0  9992
2 40294  55.1338 137.0672 0017530  31.9012 328.1985  2.00572807 31094
1 40294U 14068A   19028.10954466 -.00000024  00000-0  00000+0 0  9999
2 40294  55.1340 137.0275 0017533  31.8199 328.2777  2.00572894 31090
1 40294U 14068A   19028.60809816 -.00000031  00000-0  00000+0 0  9990
2 40294  55.1342 137.0076 0017536  31.7634 328.3327  2.00572956 31100
1 40294U 14068A   19028.60809844 -.00000031  00000-0  00000-0 0  9992
2 40294  55.1342 137.0077 0017540  31.8029 328.2933  2.00572913 31122
1 40294U 14068A   19030.10375926 -.00000048  00000-0  00000+0 0  9996
2 40294  55.1346 136.9481 0017542  31.7120 328.3806  2.00573095 31139
1 40294U 14068A   19030.60231419 -.00000053  00000-0  00000+0 0  9995
2 40294  55.1347 136.9282 0017549  31.6884 328.4035  2.00573104 31149
1 40294U 14068A   19030.60231419 -.00000053  00000-0  00000-0 0  9996
2 40294  55.1347 136.9282 0017549  31.6884 328.4035  2.00573104 31161
1 40294U 14068A   19031.59942310 -.00000057  00000-0  00000+0 0  9997
2 40294  55.1350 136.8885 0017545  31.5748 328.5166  2.00573233 31166
1 40294U 14068A   19033.09509063 -.00000053  00000-0  00000+0 0  9994
2 40294  55.1353 136.8290 0017552  31.3827 328.7112  2.00573409 31194
1 40294U 14068A   19034.09220516 -.00000045  00000-0  00000+0 0  9999
2 40294  55.1356 136.7893 0017554  31.3262 328.7719  2.00573492 31218
1 40294U 14068A   19034.59076339 -.00000040  00000-0  00000-0 0  9992
2 40294  55.1357 136.7695 0017565  31.3122 328.7884  2.00573502 31244
1 40294U 14068A   19035.08932170 -.00000034  00000-0  00000+0 0  9993
2 40294  55.1358 136.7496 0017562  31.2341 328.8693  2.00573563 31238
1 40294U 14068A   19036.08643865 -.00000022  00000-0  00000+0 0  9991
2 40294  55.1360 136.7100 0017571  31.1488 328.9608  2.00573640 31259
1 40294U 14068A   19037.08355521 -.00000011  00000-0  00000+0 0  9999
2 40294  55.1363 136.6703 0017579  31.0824 329.0337  2.00573716 31278
1 40294U 14068A   19038.08067062 -.00000003  00000-0  00000+0 0  9991
2 40294  55.1366 136.6306 0017589  31.0216 329.1005  2.00573799 31292
1 40294U 14068A   19038.08067062 -.00000003  00000-0  00000-0 0  9992
2 40294  55.1366 136.6306 0017589  31.0216 329.1005  2.00573799 31315
1 40294U 14068A   19039.07778469  .00000003  00000-0  00000+0 0  9990
2 40294  55.1368 136.5909 0017599  30.9297 329.1974  2.00573857 31313
1 40294U 14068A   19039.57634191  .00000004  00000-0  00000-0 0  9990
2 40294  55.1370 136.5711 0017604  30.8871 329.2419  2.00573844 31345
1 40294U 14068A   19040.07489598  .00000005  00000-0  00000+0 0  9996
2 40294  55.1371 136.5513 0017608  30.8082 329.3222  2.00573918 31338
1 40294U 14068A   19040.57345125  .00000005  00000-0  00000-0 0  9999
2 40294  55.1372 136.5314 0017612  30.7433 329.3881  2.00573919 31367
1 40294U 14068A   19041.07200477  .00000004  00000-0  00000-0 0  9994
2 40294  55.1373 136.5115 0017620  30.6572 329.4748  2.00573964 31373
1 40294U 14068A   19041.07200497  .00000004  00000-0  00000+0 0  9995
2 40294  55.1373 136.5115 0017618  30.6804 329.4515  2.00573955 31358
1 40294U 14068A   19042.06911005  .00000001  00000-0  00000-0 0  9997
2 40294  55.1375 136.4718 0017636  30.5793 329.5525  2.00574036 31391
1 40294U 14068A   19042.06911083  .00000001  00000-0  00000+0 0  9992
2 40294  55.1375 136.4718 0017635  30.6196 329.5123  2.00574006 31377
1 40294U 14068A   19043.06621416 -.00000004  00000-0  00000+0 0  9995
2 40294  55.1378 136.4321 0017649  30.5315 329.5988  2.00574063 31391
1 40294U 14068A   19045.06041758 -.00000015  00000-0  00000+0 0  9994
2 40294  55.1383 136.3526 0017677  30.3712 329.7544  2.00574186 31434
1 40294U 14068A   19046.05752011 -.00000018  00000-0  00000+0 0  9998
2 40294  55.1387 136.3129 0017687  30.2792 329.8451  2.00574255 31452
